norad_id,name,regime,epoch,line1,line2,inclination,eccentricity,mean_motion,raan,arg_pericenter,mean_anomaly
65486,SHIYAN 29,IGO,25299.21197646,1 65486U 25196A   25299.21197646 -.00000262  00000-0  00000-0 0  3169,2 65486  28.5651  21.4840 0010498 177.1846   7.5506  1.00271075   537,28.5651,0.0010498,1.00271075,21.484,177.1846,7.5506
65486,SHIYAN 29,IGO,25299.51023593,1 65486U 25196A   25299.51023593 -.00000261  00000-0  00000+0 0  1572,2 65486  28.5654  21.4803 0010507 177.1947 115.2085  1.00270966   539,28.5654,0.0010507,1.00270966,21.4803,177.1947,115.2085
65486,SHIYAN 29,IGO,25299.76112369,1 65486U 25196A   25299.76112369 -.00000261  00000-0  00000+0 0  1580,2 65486  28.5656  21.4771 0010526 177.2357 205.7349  1.00270869   543,28.5656,0.0010526,1.00270869,21.4771,177.2357,205.7349
65486,SHIYAN 29,IGO,25299.88976170,1 65486U 25196A   25299.88976170 -.00000261  00000-0  00000+0 0  1592,2 65486  28.5658  21.4755 0010539 177.2664 252.1407  1.00270816   545,28.5658,0.0010539,1.00270816,21.4755,177.2664,252.1407
65486,SHIYAN 29,IGO,25299.94978365,1 65486U 25196A   25299.94978365 -.00000261  00000-0  00000-0 0  3231,2 65486  28.5658  21.4748 0010545 177.2780 273.7962  1.00270791   540,28.5658,0.0010545,1.00270791,21.4748,177.278,273.7962
65486,SHIYAN 29,IGO,25300.20233669,1 65486U 25196A   25300.20233669 -.00000261  00000-0  00000+0 0  1602,2 65486  28.5661  21.4716 0010561 177.3066   4.9356  1.00270679   541,28.5661,0.0010561,1.00270679,21.4716,177.3066,4.9356
65486,SHIYAN 29,IGO,25300.27360398,1 65486U 25196A   25300.27360398 -.00000260  00000-0  00000-0 0  3274,2 65486  28.5662  21.4707 0010563 177.3068  30.6619  1.00270649   541,28.5662,0.0010563,1.00270649,21.4707,177.3068,30.6619
65486,SHIYAN 29,IGO,25300.53806436,1 65486U 25196A   25300.53806436 -.00000260  00000-0  00000+0 0  1616,2 65486  28.5664  21.4674 0010572 177.3221 126.1132  1.00270546   544,28.5664,0.0010572,1.00270546,21.4674,177.3221,126.1132
65486,SHIYAN 29,IGO,25300.76906274,1 65486U 25196A   25300.76906274 -.00000260  00000-0  00000+0 0  1623,2 65486  28.5667  21.4645 0010589 177.3804 209.4422  1.00270451   553,28.5667,0.0010589,1.00270451,21.4645,177.3804,209.4422
65486,SHIYAN 29,IGO,25300.81563910,1 65486U 25196A   25300.81563910 -.00000260  00000-0  00000+0 0  1636,2 65486  28.5667  21.4639 0010594 177.3971 226.2388  1.00270431   553,28.5667,0.0010594,1.00270431,21.4639,177.3971,226.2388
65486,SHIYAN 29,IGO,25300.89513093,1 65486U 25196A   25300.89513093 -.00000260  00000-0  00000-0 0  3331,2 65486  28.5668  21.4629 0010603 177.4299 254.9013  1.00270397   552,28.5668,0.0010603,1.00270397,21.4629,177.4299,254.9013
65486,SHIYAN 29,IGO,25301.64879808,1 65486U 25196A   25301.64879808 -.00000259  00000-0  00000-0 0  3422,2 65486  28.5675  21.4534 0010645 177.5487 166.8448  1.00270061   552,28.5675,0.0010645,1.00270061,21.4534,177.5487,166.8448
65486,SHIYAN 29,IGO,25301.75525411,1 65486U 25196A   25301.75525411 -.00000259  00000-0  00000+0 0  1665,2 65486  28.5677  21.4521 0010653 177.5851 205.2374  1.00270015   560,28.5677,0.0010653,1.00270015,21.4521,177.5851,205.2374
65486,SHIYAN 29,IGO,25302.20869167,1 65486U 25196A   25302.20869167 -.00000259  00000-0  00000-0 0  3512,2 65486  28.5681  21.4464 0010692 177.7641   8.7417  1.00269802   569,28.5681,0.0010692,1.00269802,21.4464,177.7641,8.7417
65486,SHIYAN 29,IGO,25302.54719132,1 65486U 25196A   25302.54719132 -.00000259  00000-0  00000+0 0  1691,2 65486  28.5685  21.4421 0010707 177.7979 130.9005  1.00269650   569,28.5685,0.0010707,1.0026965,21.4421,177.7979,130.9005
65486,SHIYAN 29,IGO,25302.69144704,1 65486U 25196A   25302.69144704 -.00000259  00000-0  00000+0 0  1706,2 65486  28.5687  21.4403 0010714 177.8449 182.9275  1.00269583   574,28.5687,0.0010714,1.00269583,21.4403,177.8449,182.9275
65486,SHIYAN 29,IGO,25302.90153484,1 65486U 25196A   25302.90153484 -.00000259  00000-0  00000-0 0  3584,2 65486  28.5689  21.4377 0010731 177.9649 258.6454  1.00269488   572,28.5689,0.0010731,1.00269488,21.4377,177.9649,258.6454
65486,SHIYAN 29,IGO,25303.07441589,1 65486U 25196A   25303.07441589 -.00000259  00000-0  00000-0 0  3602,2 65486  28.5691  21.4355 0010743 178.0707 320.9464  1.00269402   571,28.5691,0.0010743,1.00269402,21.4355,178.0707,320.9464
65486,SHIYAN 29,IGO,25303.71128514,1 65486U 25196A   25303.71128514 -.00000259  00000-0  00000+0 0  1745,2 65486  28.5698  21.4275 0010775 178.2451 190.6700  1.00269095   586,28.5698,0.0010775,1.00269095,21.4275,178.2451,190.67
65486,SHIYAN 29,IGO,25303.71128515,1 65486U 25196A   25303.71128515 -.00000259  00000-0  00000-0 0  3648,2 65486  28.5698  21.4275 0010775 178.2451 190.6700  1.00269095   586,28.5698,0.0010775,1.00269095,21.4275,178.2451,190.67
65486,SHIYAN 29,IGO,25304.18169679,1 65486U 25196A   25304.18169679 -.00000259  00000-0  00000-0 0  3679,2 65486  28.5703  21.4216 0010799 178.5631   0.1610  1.00268860   581,28.5703,0.0010799,1.0026886,21.4216,178.5631,0.161
65486,SHIYAN 29,IGO,25304.61441411,1 65486U 25196A   25304.61441411 -.00000259  00000-0  00000+0 0  1761,2 65486  28.5708  21.4161 0010821 178.6827 156.2436  1.00268651   586,28.5708,0.0010821,1.00268651,21.4161,178.6827,156.2436
65486,SHIYAN 29,IGO,25304.70461817,1 65486U 25196A   25304.70461817 -.00000259  00000-0  00000+0 0  1774,2 65486  28.5709  21.4150 0010825 178.7251 188.7630  1.00268606   598,28.5709,0.0010825,1.00268606,21.415,178.7251,188.763
65486,SHIYAN 29,IGO,25305.65340748,1 65486U 25196A   25305.65340748 -.00000260  00000-0  00000-0 0  3773,2 65486  28.5721  21.4031 0010858 179.2567 170.7236  1.00268142   590,28.5721,0.0010858,1.00268142,21.4031,179.2567,170.7236
65486,SHIYAN 29,IGO,25305.77682979,1 65486U 25196A   25305.77682979 -.00000261  00000-0  00000+0 0  1814,2 65486  28.5722  21.4015 0010861 179.3313 215.2017  1.00268082   604,28.5722,0.0010861,1.00268082,21.4015,179.3313,215.2017
65486,SHIYAN 29,IGO,25306.20683603,1 65486U 25196A   25306.20683603 -.00000261  00000-0  00000-0 0  3855,2 65486  28.5727  21.3961 0010855 179.6579  10.0972  1.00267875   608,28.5727,0.0010855,1.00267875,21.3961,179.6579,10.0972
65486,SHIYAN 29,IGO,25306.48483440,1 65486U 25196A   25306.48483440 -.00000262  00000-0  00000+0 0  1838,2 65486  28.5730  21.3926 0010864 179.7865 110.3193  1.00267742   604,28.573,0.0010864,1.00267742,21.3926,179.7865,110.3193
65486,SHIYAN 29,IGO,25306.68087012,1 65486U 25196A   25306.68087012 -.00000262  00000-0  00000+0 0  1846,2 65486  28.5733  21.3902 0010873 179.8863 180.9838  1.00267652   610,28.5733,0.0010873,1.00267652,21.3902,179.8863,180.9838
65486,SHIYAN 29,IGO,25307.54515876,1 65486U 25196A   25307.54515876 -.00000264  00000-0  00000+0 0  1871,2 65486  28.5743  21.3793 0010864 180.4539 132.4026  1.00267258   610,28.5743,0.0010864,1.00267258,21.3793,180.4539,132.4026
65486,SHIYAN 29,IGO,25307.82407205,1 65486U 25196A   25307.82407205 -.00000265  00000-0  00000+0 0  1880,2 65486  28.5746  21.3758 0010865 180.6398 232.8976  1.00267137   626,28.5746,0.0010865,1.00267137,21.3758,180.6398,232.8976
65486,SHIYAN 29,IGO,25307.94484703,1 65486U 25196A   25307.94484703 -.00000265  00000-0  00000-0 0  4010,2 65486  28.5748  21.3743 0010858 180.7269 276.4071  1.00267090   620,28.5748,0.0010858,1.0026709,21.3743,180.7269,276.4071
65486,SHIYAN 29,IGO,25308.18836405,1 65486U 25196A   25308.18836405 -.00000266  00000-0  00000+0 0  1890,2 65486  28.5751  21.3712 0010839 180.8976   4.1394  1.00266986   622,28.5751,0.0010839,1.00266986,21.3712,180.8976,4.1394
65486,SHIYAN 29,IGO,25308.18836406,1 65486U 25196A   25308.18836406 -.00000266  00000-0  00000-0 0  4031,2 65486  28.5751  21.3712 0010839 180.8976   4.1394  1.00266986   622,28.5751,0.0010839,1.00266986,21.3712,180.8976,4.1394
65486,SHIYAN 29,IGO,25308.81823367,1 65486U 25196A   25308.81823367 -.00000267  00000-0  00000+0 0  1906,2 65486  28.5759  21.3633 0010834 181.3030 231.0999  1.00266729   632,28.5759,0.0010834,1.00266729,21.3633,181.303,231.0999
65486,SHIYAN 29,IGO,25308.81823368,1 65486U 25196A   25308.81823368 -.00000267  00000-0  00000-0 0  4046,2 65486  28.5759  21.3633 0010834 181.3031 231.0999  1.00266729   633,28.5759,0.0010834,1.00266729,21.3633,181.3031,231.0999
65486,SHIYAN 29,IGO,25309.07176534,1 65486U 25196A   25309.07176534 -.00000268  00000-0  00000-0 0  4064,2 65486  28.5762  21.3601 0010811 181.4634 322.4575  1.00266637   630,28.5762,0.0010811,1.00266637,21.3601,181.4634,322.4575
65486,SHIYAN 29,IGO,25309.92503976,1 65486U 25196A   25309.92503976 -.00000270  00000-0  00000-0 0  4100,2 65486  28.5772  21.3494 0010769 182.0175 269.9113  1.00266333   647,28.5772,0.0010769,1.00266333,21.3494,182.0175,269.9113
65486,SHIYAN 29,IGO,25310.18826437,1 65486U 25196A   25310.18826437 -.00000271  00000-0  00000-0 0  4123,2 65486  28.5776  21.3461 0010741 182.1435   4.8017  1.00266249   640,28.5776,0.0010741,1.00266249,21.3461,182.1435,4.8017
65486,SHIYAN 29,IGO,25310.80955215,1 65486U 25196A   25310.80955215 -.00000272  00000-0  00000+0 0  1968,2 65486  28.5783  21.3382 0010709 182.5543 228.6574  1.00266059   652,28.5783,0.0010709,1.00266059,21.3382,182.5543,228.6574
65486,SHIYAN 29,IGO,25310.96803251,1 65486U 25196A   25310.96803251 -.00000272  00000-0  00000-0 0  4196,2 65486  28.5785  21.3362 0010692 182.6250 285.7936  1.00266015   657,28.5785,0.0010692,1.00266015,21.3362,182.625,285.7936
65486,SHIYAN 29,IGO,25311.17973330,1 65486U 25196A   25311.17973330 -.00000273  00000-0  00000-0 0  4209,2 65486  28.5788  21.3335 0010667 182.6992   2.1369  1.00265957   650,28.5788,0.0010667,1.00265957,21.3335,182.6992,2.1369
65486,SHIYAN 29,IGO,25311.73216794,1 65486U 25196A   25311.73216794 -.00000274  00000-0  00000+0 0  2034,2 65486  28.5795  21.3265 0010630 183.0478 201.2001  1.00265819   667,28.5795,0.001063,1.00265819,21.3265,183.0478,201.2001
65486,SHIYAN 29,IGO,25311.79248833,1 65486U 25196A   25311.79248833 -.00000274  00000-0  00000+0 0  2040,2 65486  28.5795  21.3258 0010624 183.0839 222.9380  1.00265805   668,28.5795,0.0010624,1.00265805,21.3258,183.0839,222.938
